[{"OBJECT_NAME":"THEA","OBJECT_ID":"2018-099AQ","EPOCH":"2026-03-09T22:33:02.658240","MEAN_MOTION":15.31454284,"ECCENTRICITY":0.00065849,"INCLINATION":97.4542,"RA_OF_ASC_NODE":137.8815,"ARG_OF_PERICENTER":275.4664,"MEAN_ANOMALY":84.5826,"EPHEMERIS_TYPE":0,"CLASSIFICATION_TYPE":"U","NORAD_CAT_ID":43796,"ELEMENT_SET_NO":999,"REV_AT_EPOCH":39748,"BSTAR":0.00074635274,"MEAN_MOTION_DOT":0.00022649,"MEAN_MOTION_DDOT":0},{"OBJECT_NAME":"STARLINK-31230","OBJECT_ID":"2024-020Q","EPOCH":"2026-03-09T23:06:22.361184","MEAN_MOTION":15.30186228,"ECCENTRICITY":0.00011604,"INCLINATION":53.1616,"RA_OF_ASC_NODE":318.9995,"ARG_OF_PERICENTER":80.4084,"MEAN_ANOMALY":279.7048,"EPHEMERIS_TYPE":0,"CLASSIFICATION_TYPE":"U","NORAD_CAT_ID":58890,"ELEMENT_SET_NO":999,"REV_AT_EPOCH":11814,"BSTAR":0.00010599372,"MEAN_MOTION_DOT":2.78e-5,"MEAN_MOTION_DDOT":0}]
